STARLINK-33709          
1 63419U 25065W   26068.14755491  .00041815  00000+0  15197-2 0  9992
2 63419  42.9977 110.3793 0001213 265.0851  94.9862 15.27595604 52752
2025-155V               
1 64895U 25155V   26068.85787115  .00013705  00000+0  51002-3 0  9990
2 64895  97.4485  37.2490 0008035 152.8264 207.3397 15.27583301 65579
